STARLINK-3749           
1 52313U 22041BE  22126.58334491 -.00075093  00000+0 -53473-3 0  9993
2 52313  53.2154 301.0390 0001197  55.4423  74.5280 15.73229621  3000
FALCON 9 DEB            
1 52314U 22041BF  22126.51417035  .00289661  43307-4  78713-3 0  9995
2 52314  53.2082 300.0881 0014751 324.5160  35.4886 15.93534251  2369
FALCON 9 DEB            
1 52315U 22041BG  22127.20075202  .00294699  44728-4  77474-3 0  9997
2 52315  53.2074 296.5476 0015258 334.1557  25.8708 15.94136939  2470
FALCON 9 DEB            
1 52316U 22041BH  22127.18894868  .00319826  51680-4  77622-3 0  9992
2 52316  53.2074 296.4733 0011257 327.0420  32.9907 15.95702258  2475
FALCON 9 DEB            
1 52317U 22041BJ  22127.18415661  .00365198  65000-4  84391-3 0  9998
2 52317  53.2087 296.4444 0011034 342.2270  17.8373 15.96581902  2475
CREW DRAGON 4           
1 52318U 22042A   22126.55713779  .00008623  00000+0  15905-3 0  9997
2 52318  51.6422 182.7615 0006782  71.9848  89.1040 15.49963571338726
AXIOM-1 DEB             
1 52319U 22037B   22127.33381643  .00980566  11417-4  86993-3 0  9999
2 52319  51.8835 174.7881 0075796 212.8265 146.8241 16.06007779  1862
2022-043A               
1 52320U 22043A   22127.24672895  .00007436  00000+0  32025-3 0  9994
2 52320  97.4648 202.8788 0011900 220.6753 227.3856 15.22823924  1230
2022-043B               
1 52321U 22043B   22127.24328845  .00024663  00000+0  10050-2 0  9992
2 52321  97.4725 202.8859 0012662 254.9877 190.9858 15.24386095  1231
2022-043C               
1 52322U 22043C   22127.23240809  .00007735  00000+0  31768-3 0  9996
2 52322  97.4729 202.8773 0012596 260.7800 130.3366 15.24413752  1231
2022-043D               
1 52323U 22043D   22127.26620532  .00015337  00000+0  28381-3 0  9999
2 52323  97.5641 203.3683 0089266 356.2488  88.3530 15.44738731  1259
2022-043E               
1 52324U 22043E   22127.23224883  .00059002  00000+0  22162-2 0  9993
2 52324  97.4649 202.8951 0018144 277.7632 169.9215 15.26816580  1237
2022-043F               
1 52325U 22043F   22127.19501632  .00029001  00000+0  17421-2 0  9997
2 52325  97.2229 202.4109 0112476 187.1242 172.8325 15.05601124  1200
2022-043G               
1 52326U 22043G   22127.16304079  .00018827  00000+0  16839-2 0  9997
2 52326  97.2951 202.2192 0159943 137.2626 224.1119 14.86540081  1186
2022-043H               
1 52327U 22043H   22127.13194911  .00024171  00000+0  14495-2 0  9992
2 52327  97.7108 202.7325 0121210 189.7105 170.1724 15.04898788  1205
2022-043J               
1 52328U 22043J   22127.16652517  .00019155  00000+0  17309-2 0  9990
2 52328  97.7300 202.5497 0162515 138.4527 222.9185 14.85882807  1176
COSMOS 2555             
1 52330U 22044A   22127.03614377  .00398722  72767-4  63937-3 0  9995
2 52330  96.4395 217.2056 0010603 236.3726 233.0091 16.03506645  1132
STARLINK-3889           
1 52331U 22045A   22126.91667824 -.00874709  00000+0 -52667-2 0  9997
2 52331  53.2177  41.5585 0001166  74.3695  78.0429 15.79297371  3652
STARLINK-3831           
1 52332U 22045B   22126.58334491 -.00873191  00000+0 -51216-2 0  9995
2 52332  53.2175  43.2245 0000941  84.4313 330.3318 15.79865720  1571
STARLINK-3847           
1 52333U 22045C   22126.58334491 -.00873269  00000+0 -51181-2 0  9993
2 52333  53.2175  43.2242 0000944  78.5697 336.5744 15.79882683  1579
STARLINK-3880           
1 52334U 22045D   22126.91667824 -.00874670  00000+0 -52615-2 0  9990
2 52334  53.2177  41.5569 0001238  63.5611  89.2166 15.79317198  3646
STARLINK-3814           
1 52335U 22045E   22126.58334491 -.00873345  00000+0 -50991-2 0  9998
2 52335  53.2175  43.2213 0000978  74.2230 342.2486 15.79965156  1576
STARLINK-3823           
1 52336U 22045F   22126.91667824 -.00874673  00000+0 -52517-2 0  9996
2 52336  53.2177  41.5555 0001223  66.3934  87.0978 15.79358119  3652
STARLINK-3797           
1 52337U 22045G   22126.58334491 -.00873297  00000+0 -51133-2 0  9995
2 52337  53.2175  43.2233 0000965  80.4972 334.9754 15.79903640  1585
STARLINK-3815           
1 52338U 22045H   22126.91667824 -.00874542  00000+0 -52364-2 0  9993
2 52338  53.2177  41.5532 0001229  63.3503  91.2205 15.79418067  3653
STARLINK-3792           
1 52339U 22045J   22126.91667824 -.00874690  00000+0 -52420-2 0  9991
2 52339  53.2177  41.5543 0001234  64.9887  89.2157 15.79398787  3653
STARLINK-3818           
1 52340U 22045K   22126.58334491 -.00873331  00000+0 -50655-2 0  9996
2 52340  53.2175  43.2159 0000952  77.7727 341.0057 15.80108263  1573
STARLINK-3843           
1 52341U 22045L   22126.58334491 -.00873309  00000+0 -50893-2 0  9996
2 52341  53.2175  43.2196 0000942  84.8756 332.2566 15.80006183  1570
STARLINK-3850           
1 52342U 22045M   22126.58334491 -.00873369  00000+0 -50571-2 0  9996
2 52342  53.2175  43.2143 0000950  78.0960 341.3863 15.80145241  1574
STARLINK-3849           
1 52343U 22045N   22126.91667824 -.00874522  00000+0 -52312-2 0  9990
2 52343  53.2177  41.5526 0001284  56.8427  98.0792 15.79438690  3655
STARLINK-3851           
1 52344U 22045P   22126.91667824 -.00874747  00000+0 -52043-2 0  9991
2 52344  53.2177  41.5477 0001184  69.1578  87.9085 15.79558094  3657
STARLINK-3852           
1 52345U 22045Q   22126.91667824 -.00874873  00000+0 -52289-2 0  9994
2 52345  53.2177  41.5518 0001142  79.4380  75.8378 15.79459229  3643
STARLINK-3812           
1 52346U 22045R   22126.91667824 -.00874695  00000+0 -51991-2 0  9996
2 52346  53.2177  41.5469 0001194  68.3986  89.0175 15.79578349  3653
STARLINK-3826           
1 52347U 22045S   22126.91667824 -.00874607  00000+0 -52175-2 0  9995
2 52347  53.2177  41.5502 0001233  62.8835  93.1109 15.79498633  3658
STARLINK-3829           
1 52348U 22045T   22126.58334491 -.00873698  00000+0 -50353-2 0  9995
2 52348  53.2175  43.2106 0001046  58.2379   2.8709 15.80246880  1579
STARLINK-3819           
1 52349U 22045U   22126.91667824 -.00874864  00000+0 -52098-2 0  9996
2 52349  53.2177  41.5485 0001223  69.4159  87.2992 15.79537957  3658
STARLINK-3754           
1 52350U 22045V   22126.91667824 -.00874778  00000+0 -51854-2 0  9991
2 52350  53.2177  41.5444 0001177  73.5337  84.9403 15.79638184  3652
STARLINK-3816           
1 52351U 22045W   22126.91667824 -.00874700  00000+0 -51941-2 0  9994
2 52351  53.2177  41.5463 0001258  62.4017  95.3615 15.79598826  3655
STARLINK-3838           
1 52352U 22045X   22126.91667824 -.00874624  00000+0 -51698-2 0  9999
2 52352  53.2177  41.5422 0001263  59.0633 100.4510 15.79698721  3650
STARLINK-3807           
1 52353U 22045Y   22126.58334491 -.00873403  00000+0 -50245-2 0  9995
2 52353  53.2176  43.2094 0000944  82.9194 338.8505 15.80286132  1577
STARLINK-3876           
1 52354U 22045Z   22126.91667824 -.00875023  00000+0 -51541-2 0  9992
2 52354  53.2177  41.5392 0001181  77.9329  82.9999 15.79776497  3650
STARLINK-3877           
1 52355U 22045AA  22126.91667824 -.00874836  00000+0 -51761-2 0  9998
2 52355  53.2177  41.5432 0001209  69.5542  89.6155 15.79678550  3650
STARLINK-3801           
1 52356U 22045AB  22126.58334491 -.00873538  00000+0 -50070-2 0  9993
2 52356  53.2176  43.2061 0000951  94.8520 328.2298 15.80365142  1590
STARLINK-3821           
1 52357U 22045AC  22126.91667824 -.00874890  00000+0 -51671-2 0  9990
2 52357  53.2177  41.5417 0001193  71.2010  88.6726 15.79717999  3651
STARLINK-3837           
1 52358U 22045AD  22126.91667824 -.00875008  00000+0 -51393-2 0  9994
2 52358  53.2177  41.5370 0001173  78.8261  83.1122 15.79838614  3657
STARLINK-3853           
1 52359U 22045AE  22126.91667824 -.00874783  00000+0 -51570-2 0  9991
2 52359  53.2177  41.5402 0001172  71.5407  89.0278 15.79757791  3658
STARLINK-3824           
1 52360U 22045AF  22126.58334491 -.00873480  00000+0 -49742-2 0  9998
2 52360  53.2176  43.2014 0000963  81.6588 343.6610 15.80505305  1578
STARLINK-3728           
1 52361U 22045AG  22126.91667824 -.00874859  00000+0 -51482-2 0  9990
2 52361  53.2177  41.5387 0001166  76.6262  84.6431 15.79797039  3652
STARLINK-3848           
1 52362U 22045AH  22126.91667824 -.00874918  00000+0 -51248-2 0  9997
2 52362  53.2177  41.5347 0001162  77.8760  85.0996 15.79897586  3650
STARLINK-3830           
1 52363U 22045AJ  22126.91667824 -.00874989  00000+0 -51441-2 0  9991
2 52363  53.2177  41.5379 0001154  81.5526  80.0495 15.79818009  3651
STARLINK-3820           
1 52364U 22045AK  22126.58334491 -.00873621  00000+0 -49614-2 0  9997
2 52364  53.2176  43.1993 0000928  88.5239 337.7505 15.80565005  1577
STARLINK-3874           
1 52365U 22045AL  22126.91667824 -.00874975  00000+0 -51347-2 0  9993
2 52365  53.2177  41.5365 0001145  82.2356  80.0596 15.79857423  3652
STARLINK-3808           
1 52366U 22045AM  22126.58334491 -.00873616  00000+0 -49523-2 0  9992
2 52366  53.2176  43.1979 0000955  93.8844 333.0299 15.80604191  1573
STARLINK-3817           
1 52367U 22045AN  22126.91667824 -.00874962  00000+0 -51206-2 0  9995
2 52367  53.2177  41.5343 0001154  80.9378  82.3904 15.79916654  3659
STARLINK-3834           
1 52368U 22045AP  22126.58334491 -.00873564  00000+0 -49390-2 0  9998
2 52368  53.2176  43.1957 0000938  92.2336 335.6652 15.80660867  1574
STARLINK-3841           
1 52369U 22045AQ  22126.58334491 -.00873689  00000+0 -49573-2 0  9990
2 52369  53.2176  43.1989 0000939  91.7628 334.8331 15.80584587  1578
STARLINK-3827           
1 52370U 22045AR  22126.91667824 -.00874955  00000+0 -51021-2 0  9996
2 52370  53.2177  41.5309 0001175  71.9372  92.7692 15.79994756  3650
STARLINK-3798           
1 52371U 22045AS  22126.91667824 -.00875140  00000+0 -50985-2 0  9992
2 52371  53.2177  41.5306 0001155  80.6754  84.3622 15.80015310  3648
STARLINK-3796           
1 52372U 22045AT  22126.91667824 -.00875114  00000+0 -50846-2 0  9990
2 52372  53.2177  41.5280 0001167  77.6017  88.4630 15.80073628  3641
